<?xml version="1.0" encoding="UTF-8"?>
<ndm xmlns:xsi="http://www.w3.org/2001/XMLSchema-instance" xsi:noNamespaceSchemaLocation="https://sanaregistry.org/r/ndmxml_unqualified/ndmxml-2.0.0-master-2.0.xsd">
<omm id="CCSDS_OMM_VERS" version="2.0">
<header><CREATION_DATE/><ORIGINATOR/></header><body><segment><metadata><OBJECT_NAME>KUIPER-00008</OBJECT_NAME><OBJECT_ID>2025-088A</OBJECT_ID><CENTER_NAME>EARTH</CENTER_NAME><REF_FRAME>TEME</REF_FRAME><TIME_SYSTEM>UTC</TIME_SYSTEM><MEAN_ELEMENT_THEORY>SGP4</MEAN_ELEMENT_THEORY></metadata><data><meanElements><EPOCH>2025-11-28T23:35:04.826400</EPOCH><MEAN_MOTION>14.99825358</MEAN_MOTION><ECCENTRICITY>.00108902</ECCENTRICITY><INCLINATION>51.8895</INCLINATION><RA_OF_ASC_NODE>186.0098</RA_OF_ASC_NODE><ARG_OF_PERICENTER>126.3142</ARG_OF_PERICENTER><MEAN_ANOMALY>233.8836</MEAN_ANOMALY></meanElements><tleParameters><EPHEMERIS_TYPE>0</EPHEMERIS_TYPE><CLASSIFICATION_TYPE>U</CLASSIFICATION_TYPE><NORAD_CAT_ID>63724</NORAD_CAT_ID><ELEMENT_SET_NO>999</ELEMENT_SET_NO><REV_AT_EPOCH>3295</REV_AT_EPOCH><BSTAR>-.14546838E-3</BSTAR><MEAN_MOTION_DOT>-.2091E-4</MEAN_MOTION_DOT><MEAN_MOTION_DDOT>0</MEAN_MOTION_DDOT></tleParameters></data></segment></body></omm>
<omm id="CCSDS_OMM_VERS" version="2.0">
<header><CREATION_DATE/><ORIGINATOR/></header><body><segment><metadata><OBJECT_NAME>KUIPER-00009</OBJECT_NAME><OBJECT_ID>2025-088B</OBJECT_ID><CENTER_NAME>EARTH</CENTER_NAME><REF_FRAME>TEME</REF_FRAME><TIME_SYSTEM>UTC</TIME_SYSTEM><MEAN_ELEMENT_THEORY>SGP4</MEAN_ELEMENT_THEORY></metadata><data><meanElements><EPOCH>2025-11-29T06:00:02.000160</EPOCH><MEAN_MOTION>14.77108812</MEAN_MOTION><ECCENTRICITY>.00114049</ECCENTRICITY><INCLINATION>51.9007</INCLINATION><RA_OF_ASC_NODE>190.7344</RA_OF_ASC_NODE><ARG_OF_PERICENTER>118.3193</ARG_OF_PERICENTER><MEAN_ANOMALY>356.5457</MEAN_ANOMALY></meanElements><tleParameters><EPHEMERIS_TYPE>0</EPHEMERIS_TYPE><CLASSIFICATION_TYPE>U</CLASSIFICATION_TYPE><NORAD_CAT_ID>63725</NORAD_CAT_ID><ELEMENT_SET_NO>999</ELEMENT_SET_NO><REV_AT_EPOCH>575</REV_AT_EPOCH><BSTAR>.37502318E-2</BSTAR><MEAN_MOTION_DOT>.26657E-3</MEAN_MOTION_DOT><MEAN_MOTION_DDOT>0</MEAN_MOTION_DDOT></tleParameters></data></segment></body></omm>
<omm id="CCSDS_OMM_VERS" version="2.0">
<header><CREATION_DATE/><ORIGINATOR/></header><body><segment><metadata><OBJECT_NAME>KUIPER-00010</OBJECT_NAME><OBJECT_ID>2025-088C</OBJECT_ID><CENTER_NAME>EARTH</CENTER_NAME><REF_FRAME>TEME</REF_FRAME><TIME_SYSTEM>UTC</TIME_SYSTEM><MEAN_ELEMENT_THEORY>SGP4</MEAN_ELEMENT_THEORY></metadata><data><meanElements><EPOCH>2025-11-28T17:53:22.869312</EPOCH><MEAN_MOTION>14.80314825</MEAN_MOTION><ECCENTRICITY>.00123695</ECCENTRICITY><INCLINATION>51.8990</INCLINATION><RA_OF_ASC_NODE>169.4040</RA_OF_ASC_NODE><ARG_OF_PERICENTER>163.3029</ARG_OF_PERICENTER><MEAN_ANOMALY>196.8343</MEAN_ANOMALY></meanElements><tleParameters><EPHEMERIS_TYPE>0</EPHEMERIS_TYPE><CLASSIFICATION_TYPE>U</CLASSIFICATION_TYPE><NORAD_CAT_ID>63726</NORAD_CAT_ID><ELEMENT_SET_NO>999</ELEMENT_SET_NO><REV_AT_EPOCH>3278</REV_AT_EPOCH><BSTAR>.21965438E-3</BSTAR><MEAN_MOTION_DOT>.1467E-4</MEAN_MOTION_DOT><MEAN_MOTION_DDOT>0</MEAN_MOTION_DDOT></tleParameters></data></segment></body></omm>
<omm id="CCSDS_OMM_VERS" version="2.0">
<header><CREATION_DATE/><ORIGINATOR/></header><body><segment><metadata><OBJECT_NAME>KUIPER-00011</OBJECT_NAME><OBJECT_ID>2025-088D</OBJECT_ID><CENTER_NAME>EARTH</CENTER_NAME><REF_FRAME>TEME</REF_FRAME><TIME_SYSTEM>UTC</TIME_SYSTEM><MEAN_ELEMENT_THEORY>SGP4</MEAN_ELEMENT_THEORY></metadata><data><meanElements><EPOCH>2025-11-28T20:14:54.231072</EPOCH><MEAN_MOTION>14.79951650</MEAN_MOTION><ECCENTRICITY>.00149894</ECCENTRICITY><INCLINATION>51.9004</INCLINATION><RA_OF_ASC_NODE>176.5958</RA_OF_ASC_NODE><ARG_OF_PERICENTER>136.6120</ARG_OF_PERICENTER><MEAN_ANOMALY>223.6025</MEAN_ANOMALY></meanElements><tleParameters><EPHEMERIS_TYPE>0</EPHEMERIS_TYPE><CLASSIFICATION_TYPE>U</CLASSIFICATION_TYPE><NORAD_CAT_ID>63727</NORAD_CAT_ID><ELEMENT_SET_NO>999</ELEMENT_SET_NO><REV_AT_EPOCH>3282</REV_AT_EPOCH><BSTAR>-.65845107E-4</BSTAR><MEAN_MOTION_DOT>-.729E-5</MEAN_MOTION_DOT><MEAN_MOTION_DDOT>0</MEAN_MOTION_DDOT></tleParameters></data></segment></body></omm>
<omm id="CCSDS_OMM_VERS" version="2.0">
<header><CREATION_DATE/><ORIGINATOR/></header><body><segment><metadata><OBJECT_NAME>KUIPER-00012</OBJECT_NAME><OBJECT_ID>2025-088E</OBJECT_ID><CENTER_NAME>EARTH</CENTER_NAME><REF_FRAME>TEME</REF_FRAME><TIME_SYSTEM>UTC</TIME_SYSTEM><MEAN_ELEMENT_THEORY>SGP4</MEAN_ELEMENT_THEORY></metadata><data><meanElements><EPOCH>2025-11-29T06:00:02.000160</EPOCH><MEAN_MOTION>14.76783485</MEAN_MOTION><ECCENTRICITY>.00093946</ECCENTRICITY><INCLINATION>51.9000</INCLINATION><RA_OF_ASC_NODE>157.8839</RA_OF_ASC_NODE><ARG_OF_PERICENTER>148.0393</ARG_OF_PERICENTER><MEAN_ANOMALY>178.1913</MEAN_ANOMALY></meanElements><tleParameters><EPHEMERIS_TYPE>0</EPHEMERIS_TYPE><CLASSIFICATION_TYPE>U</CLASSIFICATION_TYPE><NORAD_CAT_ID>63728</NORAD_CAT_ID><ELEMENT_SET_NO>999</ELEMENT_SET_NO><REV_AT_EPOCH>402</REV_AT_EPOCH><BSTAR>-.23647757E-2</BSTAR><MEAN_MOTION_DOT>-.16922E-3</MEAN_MOTION_DOT><MEAN_MOTION_DDOT>0</MEAN_MOTION_DDOT></tleParameters></data></segment></body></omm>
<omm id="CCSDS_OMM_VERS" version="2.0">
<header><CREATION_DATE/><ORIGINATOR/></header><body><segment><metadata><OBJECT_NAME>KUIPER-00013</OBJECT_NAME><OBJECT_ID>2025-088F</OBJECT_ID><CENTER_NAME>EARTH</CENTER_NAME><REF_FRAME>TEME</REF_FRAME><TIME_SYSTEM>UTC</TIME_SYSTEM><MEAN_ELEMENT_THEORY>SGP4</MEAN_ELEMENT_THEORY></metadata><data><meanElements><EPOCH>2025-11-29T07:08:33.211968</EPOCH><MEAN_MOTION>14.79909845</MEAN_MOTION><ECCENTRICITY>.00088696</ECCENTRICITY><INCLINATION>51.9007</INCLINATION><RA_OF_ASC_NODE>192.0182</RA_OF_ASC_NODE><ARG_OF_PERICENTER>57.4521</ARG_OF_PERICENTER><MEAN_ANOMALY>302.7297</MEAN_ANOMALY></meanElements><tleParameters><EPHEMERIS_TYPE>0</EPHEMERIS_TYPE><CLASSIFICATION_TYPE>U</CLASSIFICATION_TYPE><NORAD_CAT_ID>63729</NORAD_CAT_ID><ELEMENT_SET_NO>999</ELEMENT_SET_NO><REV_AT_EPOCH>3270</REV_AT_EPOCH><BSTAR>.25448083E-3</BSTAR><MEAN_MOTION_DOT>.1717E-4</MEAN_MOTION_DOT><MEAN_MOTION_DDOT>0</MEAN_MOTION_DDOT></tleParameters></data></segment></body></omm>
<omm id="CCSDS_OMM_VERS" version="2.0">
<header><CREATION_DATE/><ORIGINATOR/></header><body><segment><metadata><OBJECT_NAME>KUIPER-00014</OBJECT_NAME><OBJECT_ID>2025-088G</OBJECT_ID><CENTER_NAME>EARTH</CENTER_NAME><REF_FRAME>TEME</REF_FRAME><TIME_SYSTEM>UTC</TIME_SYSTEM><MEAN_ELEMENT_THEORY>SGP4</MEAN_ELEMENT_THEORY></metadata><data><meanElements><EPOCH>2025-11-28T21:22:39.451296</EPOCH><MEAN_MOTION>14.79961509</MEAN_MOTION><ECCENTRICITY>.00101049</ECCENTRICITY><INCLINATION>51.9004</INCLINATION><RA_OF_ASC_NODE>194.7870</RA_OF_ASC_NODE><ARG_OF_PERICENTER>114.0356</ARG_OF_PERICENTER><MEAN_ANOMALY>246.1665</MEAN_ANOMALY></meanElements><tleParameters><EPHEMERIS_TYPE>0</EPHEMERIS_TYPE><CLASSIFICATION_TYPE>U</CLASSIFICATION_TYPE><NORAD_CAT_ID>63730</NORAD_CAT_ID><ELEMENT_SET_NO>999</ELEMENT_SET_NO><REV_AT_EPOCH>3244</REV_AT_EPOCH><BSTAR>.51885081E-3</BSTAR><MEAN_MOTION_DOT>.374E-4</MEAN_MOTION_DOT><MEAN_MOTION_DDOT>0</MEAN_MOTION_DDOT></tleParameters></data></segment></body></omm>
<omm id="CCSDS_OMM_VERS" version="2.0">
<header><CREATION_DATE/><ORIGINATOR/></header><body><segment><metadata><OBJECT_NAME>KUIPER-00015</OBJECT_NAME><OBJECT_ID>2025-088H</OBJECT_ID><CENTER_NAME>EARTH</CENTER_NAME><REF_FRAME>TEME</REF_FRAME><TIME_SYSTEM>UTC</TIME_SYSTEM><MEAN_ELEMENT_THEORY>SGP4</MEAN_ELEMENT_THEORY></metadata><data><meanElements><EPOCH>2025-11-29T00:23:55.230144</EPOCH><MEAN_MOTION>14.81886582</MEAN_MOTION><ECCENTRICITY>.00112419</ECCENTRICITY><INCLINATION>51.8979</INCLINATION><RA_OF_ASC_NODE>205.4073</RA_OF_ASC_NODE><ARG_OF_PERICENTER>104.0183</ARG_OF_PERICENTER><MEAN_ANOMALY>256.2031</MEAN_ANOMALY></meanElements><tleParameters><EPHEMERIS_TYPE>0</EPHEMERIS_TYPE><CLASSIFICATION_TYPE>U</CLASSIFICATION_TYPE><NORAD_CAT_ID>63731</NORAD_CAT_ID><ELEMENT_SET_NO>999</ELEMENT_SET_NO><REV_AT_EPOCH>3276</REV_AT_EPOCH><BSTAR>.57973898E-3</BSTAR><MEAN_MOTION_DOT>.4411E-4</MEAN_MOTION_DOT><MEAN_MOTION_DDOT>0</MEAN_MOTION_DDOT></tleParameters></data></segment></body></omm>

</ndm>
