KUIPER-00008            
1 63724U 25088A   25332.98269475 -.00002091  00000+0 -14547-3 0  9997
2 63724  51.8895 186.0098 0010890 126.3142 233.8836 14.99825358 32955
KUIPER-00009            
1 63725U 25088B   25333.25002315  .00026657  00000+0  37502-2 0  9994
2 63725  51.9007 190.7344 0011404 118.3193 356.5457 14.77108812  5752
KUIPER-00010            
1 63726U 25088C   25332.74540358  .00001467  00000+0  21965-3 0  9991
2 63726  51.8990 169.4040 0012369 163.3029 196.8343 14.80314825 32787
KUIPER-00011            
1 63727U 25088D   25332.84368323 -.00000729  00000+0 -65845-4 0  9991
2 63727  51.9004 176.5958 0014989 136.6120 223.6025 14.79951650 32829
KUIPER-00012            
1 63728U 25088E   25333.25002315 -.00016922  00000+0 -23648-2 0  9999
2 63728  51.9000 157.8839 0009394 148.0393 178.1913 14.76783485  4026
KUIPER-00013            
1 63729U 25088F   25333.29760662  .00001717  00000+0  25448-3 0  9995
2 63729  51.9007 192.0182 0008869  57.4521 302.7297 14.79909845 32707
KUIPER-00014            
1 63730U 25088G   25332.89073439  .00003740  00000+0  51885-3 0  9993
2 63730  51.9004 194.7870 0010104 114.0356 246.1665 14.79961509 32446
KUIPER-00015            
1 63731U 25088H   25333.01661146  .00004411  00000+0  57974-3 0  9998
2 63731  51.8979 205.4073 0011241 104.0183 256.2031 14.81886582 32766
